TYVAK-182A              
1 48271U 21034D   26068.71131789  .00007163  00000+0  50673-3 0  9991
2 48271  97.5843 129.3711 0004862 316.5650  43.5193 15.05150420264864
STARLINK-6305           
1 56394U 23061W   26067.38444347  .00000730  00000+0  69101-4 0  9997
2 56394  43.0040 191.9609 0001466 265.0576  95.0099 15.02540998156707
